API VERSION: 1.2
API SOURCE: NASA/JPL Horizons API



*******************************************************************************
Ephemeris / API_USER Wed Apr 15 12:08:07 2026 Pasadena, USA      / Horizons
*******************************************************************************
Target body name: Earth (399)                     {source: DE441}
Center body name: Sun (10)                        {source: DE441}
Center-site name: BODY CENTER
*******************************************************************************
Start time      : A.D. 2025-Sep-22 03:02:00.0000 TDB
Stop  time      : A.D. 2025-Sep-24 03:02:00.0000 TDB
Step-size       : 60 minutes
*******************************************************************************
Center geodetic : 0.0, 0.0, 0.0                   {E-lon(deg),Lat(deg),Alt(km)}
Center cylindric: 0.0, 0.0, 0.0                   {E-lon(deg),Dxy(km),Dz(km)}
Center radii    : 695700.0, 695700.0, 695700.0 km {Equator_a, b, pole_c}
Output units    : AU-D
Calendar mode   : Mixed Julian/Gregorian
Output type     : GEOMETRIC cartesian states
Output format   : 3 (position, velocity, LT, range, range-rate)
Reference frame : Ecliptic of J2000.0
*******************************************************************************
            JDTDB,            Calendar Date (TDB),                      X,                      Y,                      Z,                     VX,                     VY,                     VZ,                     LT,                     RG,                     RR,
**************************************************************************************************************************************************************************************************************************************************************************
$$SOE
2460940.626388889, A.D. 2025-Sep-22 03:02:00.0000,  1.003657640850634E+00, -1.714847191428989E-02, -3.632470532417432E-06,  1.474856512277258E-05,  1.714419090761619E-02, -3.953882435923191E-07,  5.797489150347972E-03,  1.003804129369893E+00, -2.781360990559440E-04,
2460940.668055556, A.D. 2025-Sep-22 04:02:00.0000,  1.003657999143361E+00, -1.643412639363532E-02, -3.648975194748679E-06,  2.449425675807651E-06,  1.714439253826570E-02, -3.968439002688816E-07,  5.797422205397332E-03,  1.003792538211005E+00, -2.782394928864692E-04,
2460940.709722222, A.D. 2025-Sep-22 05:02:00.0000,  1.003657844964505E+00, -1.571977266489163E-02, -3.665541551942688E-06, -9.850069074212076E-06,  1.714458489599739E-02, -3.983495616285345E-07,  5.797355235590495E-03,  1.003780942748400E+00, -2.783426769127783E-04,
2460940.751388889, A.D. 2025-Sep-22 06:02:00.0000,  1.003657178299489E+00, -1.500541111441718E-02, -3.682171683045615E-06, -2.214990817919598E-05,  1.714476798145193E-02, -3.999050110006116E-07,  5.797288240978356E-03,  1.003769342990890E+00, -2.784456477425261E-04,
2460940.793055556, A.D. 2025-Sep-22 07:02:00.0000,  1.003655999134193E+00, -1.429104212854280E-02, -3.698867657984805E-06, -3.445008071439954E-05,  1.714494179531119E-02, -4.015100288192667E-07,  5.797221221612628E-03,  1.003757738947429E+00, -2.785484020037845E-04,
2460940.834722222, A.D. 2025-Sep-22 08:02:00.0000,  1.003654307454950E+00, -1.357666609357005E-02, -3.715631537477745E-06, -4.675057577865815E-05,  1.714510633829786E-02, -4.031643926829780E-07,  5.797154177545833E-03,  1.003746130627111E+00, -2.786509363451448E-04,
2460940.876388889, A.D. 2025-Sep-22 09:02:00.0000,  1.003652103248549E+00, -1.286228339576952E-02, -3.732465372944127E-06, -5.905138249460903E-05,  1.714526161117501E-02, -4.048678773884035E-07,  5.797087108831294E-03,  1.003734518039168E+00, -2.787532474358087E-04,
2460940.918055556, A.D. 2025-Sep-22 10:02:00.0000,  1.003649386502231E+00, -1.214789442137920E-02, -3.749371206333868E-06, -7.135249000890956E-05,  1.714540761474562E-02, -4.066202549724443E-07,  5.797020015523130E-03,  1.003722901192972E+00, -2.788553319656775E-04,
2460940.959722222, A.D. 2025-Sep-22 11:02:00.0000,  1.003646157203688E+00, -1.143349955660275E-02, -3.766351070053185E-06, -8.365388749244681E-05,  1.714554434985224E-02, -4.084212947707228E-07,  5.796952897676264E-03,  1.003711280098030E+00, -2.789571866454346E-04,
2460941.001388889, A.D. 2025-Sep-22 12:02:00.0000,  1.003642415341063E+00, -1.071909918760795E-02, -3.783406986850973E-06, -9.595556414053833E-05,  1.714567181737649E-02, -4.102707634411790E-07,  5.796885755346401E-03,  1.003699654763989E+00, -2.790588082066211E-04,
2460941.043055556, A.D. 2025-Sep-22 13:02:00.0000,  1.003638160902949E+00, -1.000469370052504E-02, -3.800540969688080E-06, -1.082575091731275E-04,  1.714579001823868E-02, -4.121684250122896E-07,  5.796818588590029E-03,  1.003688025200629E+00, -2.791601934017083E-04,
2460941.084722222, A.D. 2025-Sep-22 14:02:00.0000,  1.003633393878387E+00, -9.290283481445066E-03, -3.817755021636520E-06, -1.205597118349705E-04,  1.714589895339732E-02, -4.141140409302603E-07,  5.796751397464419E-03,  1.003676391417866E+00, -2.792613390041624E-04,
2460941.126388889, A.D. 2025-Sep-22 15:02:00.0000,  1.003628114256867E+00, -8.575868916418402E-03, -3.835051135789991E-06, -1.328621613958149E-04,  1.714599862384876E-02, -4.161073701021157E-07,  5.796684182027617E-03,  1.003664753425751E+00, -2.793622418085043E-04,
2460941.168055556, A.D. 2025-Sep-22 16:02:00.0000,  1.003622322028324E+00, -7.861450391453155E-03, -3.852431295114843E-06, -1.451648471505728E-04,  1.714608903062673E-02, -4.181481689295544E-07,  5.796616942338429E-03,  1.003653111234466E+00, -2.794628986303657E-04,
2460941.209722222, A.D. 2025-Sep-22 17:02:00.0000,  1.003616017183139E+00, -7.147028292513471E-03, -3.869897472417792E-06, -1.574677584194844E-04,  1.714617017480190E-02, -4.202361913571681E-07,  5.796549678456436E-03,  1.003641464854325E+00, -2.795633063065342E-04,
2460941.251388889, A.D. 2025-Sep-22 18:02:00.0000,  1.003609199712138E+00, -6.432603005518217E-03, -3.887451630161094E-06, -1.697708845482755E-04,  1.714624205748147E-02, -4.223711889227121E-07,  5.796482390441969E-03,  1.003629814295777E+00, -2.796634616950000E-04,
2460941.293055556, A.D. 2025-Sep-22 19:02:00.0000,  1.003601869606590E+00, -5.718174916339365E-03, -3.905095720448542E-06, -1.820742149083057E-04,  1.714630467980873E-02, -4.245529107786502E-07,  5.796415078356119E-03,  1.003618159569398E+00, -2.797633616749910E-04,
2460941.334722222, A.D. 2025-Sep-22 20:02:00.0000,  1.003594026858206E+00, -5.003744410800473E-03, -3.922831684825466E-06, -1.943777388967138E-04,  1.714635804296263E-02, -4.267811037526844E-07,  5.796347742260721E-03,  1.003606500685895E+00, -2.798630031470072E-04,
2460941.376388889, A.D. 2025-Sep-22 21:02:00.0000,  1.003585671459139E+00, -4.289311874675266E-03, -3.940661454303056E-06, -2.066814459365489E-04,  1.714640214815737E-02, -4.290555123846884E-07,  5.796280382218356E-03,  1.003594837656103E+00, -2.799623830328450E-04,
2460941.418055556, A.D. 2025-Sep-22 22:02:00.0000,  1.003576803401982E+00, -3.574877693686135E-03, -3.958586949162648E-06, -2.189853254768988E-04,  1.714643699664196E-02, -4.313758789636413E-07,  5.796212998292338E-03,  1.003583170490984E+00, -2.800614982756178E-04,
2460941.459722222, A.D. 2025-Sep-22 23:02:00.0000,  1.003567422679767E+00, -2.860442253502709E-03, -3.976610078914865E-06, -2.312893669930112E-04,  1.714646258969976E-02, -4.337419435635354E-07,  5.796145590546724E-03,  1.003571499201631E+00, -2.801603458397736E-04,
2460941.501388889, A.D. 2025-Sep-23 00:02:00.0000,  1.003557529285963E+00, -2.146005939740457E-03, -3.994732742190576E-06, -2.435935599864045E-04,  1.714647892864812E-02, -4.361534441039056E-07,  5.796078159046292E-03,  1.003559823799258E+00, -2.802589227111038E-04,
2460941.543055556, A.D. 2025-Sep-23 01:02:00.0000,  1.003547123214476E+00, -1.431569137959249E-03, -4.012956826643528E-06, -2.558978939849732E-04,  1.714648601483792E-02, -4.386101163713746E-07,  5.796010703856540E-03,  1.003548144295206E+00, -2.803572258967459E-04,
2460941.584722222, A.D. 2025-Sep-23 02:02:00.0000,  1.003536204459650E+00, -7.171322336619591E-04, -4.031284208904913E-06, -2.682023585430875E-04,  1.714648384965314E-02, -4.411116940709491E-07,  5.795943225043691E-03,  1.003536460700942E+00, -2.804552524251858E-04,
2460941.626388889, A.D. 2025-Sep-23 03:02:00.0000,  1.003524773016262E+00, -2.695612293131629E-06, -4.049716754437739E-06, -2.805069432416810E-04,  1.714647243451044E-02, -4.436579088629537E-07,  5.795875722674673E-03,  1.003524773028054E+00, -2.805529993462476E-04,
2460941.668055556, A.D. 2025-Sep-23 04:02:00.0000,  1.003512828879523E+00,  7.117403407623631E-04, -4.068256317511225E-06, -2.928116376883362E-04,  1.714645177085875E-02, -4.462484903948342E-07,  5.795808196817133E-03,  1.003513081288254E+00, -2.806504637310851E-04,
2460941.709722222, A.D. 2025-Sep-23 05:02:00.0000,  1.003500372045075E+00,  1.426175240180795E-03, -4.086904741068061E-06, -3.051164315173608E-04,  1.714642186017886E-02, -4.488831663668180E-07,  5.795740647539406E-03,  1.003501385493374E+00, -2.807476426721613E-04,
2460941.751388889, A.D. 2025-Sep-23 06:02:00.0000,  1.003487402508993E+00,  2.140608700700662E-03, -4.105663856666106E-06, -3.174213143898553E-04,  1.714638270398297E-02, -4.515616625329393E-07,  5.795673074910530E-03,  1.003489685655369E+00, -2.808445332832292E-04,
2460941.793055556, A.D. 2025-Sep-23 07:02:00.0000,  1.003473920267782E+00,  2.855040337124175E-03, -4.124535484393872E-06, -3.297262759937755E-04,  1.714633430381429E-02, -4.542837027697771E-07,  5.795605479000241E-03,  1.003477981786312E+00, -2.809411326993016E-04,
2460941.834722222, A.D. 2025-Sep-23 08:02:00.0000,  1.003459925318376E+00,  3.569469764318506E-03, -4.143521432804885E-06, -3.420313060439881E-04,  1.714627666124665E-02, -4.570490091072329E-07,  5.795537859878955E-03,  1.003466273898395E+00, -2.810374380766179E-04,
